{
  "norad_id": 59462,
  "name": "STARLINK-31511",
  "history": [
    {
      "epoch": "2026-03-28T14:30:38.405088Z",
      "apogee_km": 483.80421250948257,
      "perigee_km": 482.283774801288,
      "latitude_deg": 2.362663525669455e-05,
      "longitude_deg": -115.82256378032584,
      "height_km": 482.6564995300441,
      "semi_major_axis_km": 6861.180993655385,
      "eccentricity": 0.0001108,
      "inclination_deg": 43.0036,
      "raan_deg": 287.8601,
      "arg_perigee_deg": 282.485,
      "mean_anomaly_deg": 77.5878,
      "mean_motion_rev_day": 15.27581704
    },
    {
      "epoch": "2026-03-28T20:47:15.544032Z",
      "apogee_km": 483.69895426326,
      "perigee_km": 482.3555383038374,
      "latitude_deg": 1.451058761942985e-05,
      "longitude_deg": 148.2874942642406,
      "height_km": 482.59851178937697,
      "semi_major_axis_km": 6861.164246283548,
      "eccentricity": 9.79e-05,
      "inclination_deg": 43.0028,
      "raan_deg": 286.3827,
      "arg_perigee_deg": 287.8031,
      "mean_anomaly_deg": 72.2714,
      "mean_motion_rev_day": 15.27587297
    },
    {
      "epoch": "2026-03-29T23:27:58.861440Z",
      "apogee_km": 484.0654482138398,
      "perigee_km": 482.21701985758955,
      "latitude_deg": -1.9478527839471556e-05,
      "longitude_deg": 100.73611402069095,
      "height_km": 482.4850075090711,
      "semi_major_axis_km": 6861.278234035714,
      "eccentricity": 0.0001347,
      "inclination_deg": 43.0065,
      "raan_deg": 280.1075,
      "arg_perigee_deg": 297.9754,
      "mean_anomaly_deg": 62.0961,
      "mean_motion_rev_day": 15.2754923
    }
  ]
}